{"type":"FeatureCollection","features":[{"type":"Feature","properties":{"store_id":"famousoptic","unit":"54","name":"Famous Optic","category":"services","vacant":false,"centroid":[683.61,208.79]},"geometry":{"type":"Polygon","coordinates":[[[688.25,188.37],[675.98,189.14],[675.56,239.22],[690.05,238.84],[688.25,188.37]]]}},{"type":"Feature","properties":{"store_id":"asiangourmet","unit":"50","name":"Asian Gourmet","category":"restaurants","vacant":false,"centroid":[644.85,241.86]},"geometry":{"type":"Polygon","coordinates":[[[657.26,236.25],[631.64,235.66],[622.05,250.65],[656.04,250.46],[657.26,236.25]]]}},{"type":"Feature","properties":{"store_id":"unit-19","unit":"19","name":"","category":"available","vacant":true,"centroid":[633.45,152.71]},"geometry":{"type":"Polygon","coordinates":[[[649.92,159.43],[659.66,141.43],[603.89,142.79],[603.84,160.47],[649.92,159.43]]]}},{"type":"Feature","properties":{"store_id":"unit-55","unit":"55","name":"","category":"available","vacant":true,"centroid":[695.16,233.55]},"geometry":{"type":"Polygon","coordinates":[[[690.95,254.59],[695.2,259.1],[703.91,258.16],[701.45,187.01],[688.53,187.87],[690.95,254.59]]]}},{"type":"Feature","properties":{"store_id":"sunshine-healthcare","unit":"38","name":"Sunshine Healthcare","category":"services","vacant":false,"centroid":[479.91,316.23]},"geometry":{"type":"Polygon","coordinates":[[[484.91,288.95],[471.75,290.08],[471.02,356.74],[486.95,356.44],[484.91,288.95]]]}},{"type":"Feature","properties":{"store_id":"unit-27","unit":"27","name":"","category":"available","vacant":true,"centroid":[508.69,226.04]},"geometry":{"type":"Polygon","coordinates":[[[530.16,243.03],[528.78,220.21],[490.22,200.71],[485.16,201.03],[487.68,248.19],[530.16,243.03]]]}},{"type":"Feature","properties":{"store_id":"lola-norma-s-karinderya","unit":"52","name":"Lola Norma's Karinderya","category":"restaurants","vacant":false,"centroid":[664.21,216.37]},"geometry":{"type":"Polygon","coordinates":[[[662.52,204.56],[655.87,217.44],[667.57,229.83],[672.58,225.46],[662.52,204.56]]]}},{"type":"Feature","properties":{"store_id":"barburrito","unit":"3","name":"BarBurrito","category":"restaurants","vacant":false,"centroid":[208.29,720.93]},"geometry":{"type":"Polygon","coordinates":[[[200.8,737.75],[219.22,737.7],[219.61,695.37],[201.0,696.13],[200.8,737.75]]]}},{"type":"Feature","properties":{"store_id":"bmo","unit":"11","name":"BMO","category":"services","vacant":false,"centroid":[1103.44,696.11]},"geometry":{"type":"Polygon","coordinates":[[[1081.27,666.96],[1080.78,738.68],[1100.48,738.13],[1138.31,700.57],[1138.54,665.32],[1081.27,666.96]]]}},{"type":"Feature","properties":{"store_id":"dentist","unit":"13","name":"Dentist","category":"services","vacant":false,"centroid":[200.86,86.99]},"geometry":{"type":"Polygon","coordinates":[[[208.67,59.38],[187.57,59.91],[190.0,128.35],[209.39,127.94],[208.67,59.38]]]}},{"type":"Feature","properties":{"store_id":"dollarama","unit":"47","name":"Dollarama","category":"anchor","vacant":false,"centroid":[646.89,299.36]},"geometry":{"type":"Polygon","coordinates":[[[645.41,353.41],[701.45,352.11],[698.77,265.76],[681.62,265.71],[681.71,250.31],[622.05,250.65],[599.89,285.28],[599.87,289.0],[620.29,288.15],[620.24,319.72],[645.96,318.77],[645.41,353.41]]]}},{"type":"Feature","properties":{"store_id":"cell-max","unit":"49","name":"Cell Max","category":"services","vacant":false,"centroid":[607.99,301.31]},"geometry":{"type":"Polygon","coordinates":[[[599.86,289.1],[599.68,320.47],[620.24,319.72],[620.29,288.15],[599.86,289.1]]]}},{"type":"Feature","properties":{"store_id":"unit-33","unit":"33","name":"","category":"available","vacant":true,"centroid":[564.31,337.33]},"geometry":{"type":"Polygon","coordinates":[[[573.56,321.87],[549.9,323.88],[550.28,355.25],[564.64,354.98],[573.9,346.12],[573.56,321.87]]]}},{"type":"Feature","properties":{"store_id":"firstchoicehaircutters","unit":"9","name":"First Choice Haircutters","category":"services","vacant":false,"centroid":[778.97,731.09]},"geometry":{"type":"Polygon","coordinates":[[[803.45,737.49],[803.09,719.4],[742.32,720.96],[742.54,740.14],[803.45,737.49]]]}},{"type":"Feature","properties":{"store_id":"thairoomgrand","unit":"4","name":"Thairoomgrand","category":"restaurants","vacant":false,"centroid":[230.07,717.99]},"geometry":{"type":"Polygon","coordinates":[[[236.82,694.67],[219.61,695.37],[219.07,752.53],[238.01,752.73],[236.82,694.67]]]}},{"type":"Feature","properties":{"store_id":"fikacannabis","unit":"10","name":"FIKA Cannabis","category":"general","vacant":false,"centroid":[779.25,748.09]},"geometry":{"type":"Polygon","coordinates":[[[803.76,753.73],[803.45,737.49],[742.54,740.14],[742.7,755.33],[803.76,753.73]]]}},{"type":"Feature","properties":{"store_id":"unit-18","unit":"18","name":"","category":"available","vacant":true,"centroid":[636.05,132.18]},"geometry":{"type":"Polygon","coordinates":[[[617.29,126.33],[617.07,142.49],[659.66,141.43],[668.91,124.35],[617.29,126.33]]]}},{"type":"Feature","properties":{"store_id":"stackedpancakeampbreakfasthouse","unit":"7","name":"Stacked Pancake & Breakfast House","category":"restaurants","vacant":false,"centroid":[778.28,693.86]},"geometry":{"type":"Polygon","coordinates":[[[802.71,700.56],[802.03,680.64],[741.8,683.41],[742.13,704.13],[802.71,700.56]]]}},{"type":"Feature","properties":{"store_id":"fit4less","unit":"16","name":"Fit4Less","category":"anchor","vacant":false,"centroid":[521.66,134.65]},"geometry":{"type":"Polygon","coordinates":[[[430.63,183.81],[603.81,178.06],[603.98,100.62],[575.29,102.45],[575.16,95.33],[432.14,98.44],[430.63,183.81]]]}},{"type":"Feature","properties":{"store_id":"mad-digital-exchange","unit":"24","name":"MAD Digital Exchange","category":"services","vacant":false,"centroid":[575.01,210.67]},"geometry":{"type":"Polygon","coordinates":[[[580.34,197.37],[567.6,198.0],[567.96,222.1],[573.09,224.72],[580.78,224.46],[580.34,197.37]]]}},{"type":"Feature","properties":{"store_id":"infolottokiosk","unit":"56","name":"Info/Lotto | Kiosk","category":"services","vacant":false,"centroid":[586.53,342.8]},"geometry":{"type":"Polygon","coordinates":[[[588.71,344.56],[588.72,339.86],[583.25,340.24],[583.25,344.72],[588.71,344.56]]]}},{"type":"Feature","properties":{"store_id":"sunrise-orthotics","unit":"23","name":"Sunrise Orthotics","category":"services","vacant":false,"centroid":[591.54,211.99]},"geometry":{"type":"Polygon","coordinates":[[[580.52,203.92],[580.78,224.46],[602.46,223.73],[613.42,203.92],[580.52,203.92]]]}},{"type":"Feature","properties":{"store_id":"kumon","unit":"37","name":"Kumon Math & Reading Centre","category":"services","vacant":false,"centroid":[491.53,315.65]},"geometry":{"type":"Polygon","coordinates":[[[484.91,288.95],[486.95,356.44],[501.15,356.18],[499.7,287.69],[484.91,288.95]]]}},{"type":"Feature","properties":{"store_id":"lacoupla","unit":"45","name":"La Coupla","category":"services","vacant":false,"centroid":[653.1,394.58]},"geometry":{"type":"Polygon","coordinates":[[[660.87,378.81],[641.27,378.77],[641.44,418.61],[661.05,417.9],[660.87,378.81]]]}},{"type":"Feature","properties":{"store_id":"lynearhairsalon","unit":"25","name":"Lynear Hair Salon","category":"services","vacant":false,"centroid":[550.57,195.85]},"geometry":{"type":"Polygon","coordinates":[[[539.2,183.5],[539.11,207.34],[567.96,222.1],[567.37,182.8],[539.2,183.5]]]}},{"type":"Feature","properties":{"store_id":"south-common-orthopedic","unit":"35","name":"South Common Orthopedic","category":"services","vacant":false,"centroid":[522.75,338.02]},"geometry":{"type":"Polygon","coordinates":[[[527.03,325.85],[515.85,326.81],[516.3,355.89],[527.55,355.68],[527.03,325.85]]]}},{"type":"Feature","properties":{"store_id":"nailsforyou","unit":"43","name":"Nails For You","category":"services","vacant":false,"centroid":[611.36,389.05]},"geometry":{"type":"Polygon","coordinates":[[[621.85,395.9],[621.55,378.73],[607.07,378.69],[597.71,387.36],[598.11,397.71],[621.85,395.9]]]}},{"type":"Feature","properties":{"store_id":"nofrills","unit":"2","name":"No Frills","category":"anchor","vacant":false,"centroid":[390.3,321.86]},"geometry":{"type":"Polygon","coordinates":[[[315.08,269.19],[313.48,227.1],[245.04,229.77],[246.14,425.07],[418.01,418.36],[418.47,393.75],[465.59,391.58],[465.23,356.85],[471.02,356.74],[471.75,290.08],[464.94,290.61],[464.15,265.9],[315.08,269.19]]]}},{"type":"Feature","properties":{"store_id":"onenesswellnesscentre","unit":"14","name":"Oneness Wellness Centre","category":"services","vacant":false,"centroid":[179.92,87.48]},"geometry":{"type":"Polygon","coordinates":[[[187.57,59.91],[166.33,60.45],[168.13,128.79],[190.0,128.35],[187.57,59.91]]]}},{"type":"Feature","properties":{"store_id":"pamirrugsco","unit":"30","name":"Pamir Rugs Co.","category":"general","vacant":false,"centroid":[537.78,260.95]},"geometry":{"type":"Polygon","coordinates":[[[556.46,264.73],[554.07,261.43],[553.82,250.63],[502.8,254.77],[503.07,269.4],[556.46,264.73]]]}},{"type":"Feature","properties":{"store_id":"peplosbydesigner","unit":"29","name":"Peplos by Designer","category":"general","vacant":false,"centroid":[528.98,244.66]},"geometry":{"type":"Polygon","coordinates":[[[529.96,239.72],[530.16,243.03],[502.64,246.37],[502.8,254.77],[553.82,250.63],[553.53,238.34],[529.96,239.72]]]}},{"type":"Feature","properties":{"store_id":"pitaland","unit":"41","name":"Pita Land","category":"restaurants","vacant":false,"centroid":[560.57,395.47]},"geometry":{"type":"Polygon","coordinates":[[[565.47,380.73],[544.07,381.06],[543.99,422.16],[572.8,421.11],[571.65,387.02],[565.47,380.73]]]}},{"type":"Feature","properties":{"store_id":"popeyes","unit":"40","name":"Popeyes Louisiana Chicken","category":"restaurants","vacant":false,"centroid":[533.54,397.77]},"geometry":{"type":"Polygon","coordinates":[[[544.07,381.06],[517.89,381.47],[517.69,423.11],[543.99,422.16],[544.07,381.06]]]}},{"type":"Feature","properties":{"store_id":"unit-32","unit":"32","name":"","category":"available","vacant":true,"centroid":[549.29,304.39]},"geometry":{"type":"Polygon","coordinates":[[[573.56,321.87],[573.1,287.6],[567.97,280.55],[503.39,286.66],[504.16,327.8],[573.56,321.87]]]}},{"type":"Feature","properties":{"store_id":"realfruitbubbletea","unit":"21","name":"Real Fruit Bubble Tea","category":"food","vacant":false,"centroid":[592.62,184.38]},"geometry":{"type":"Polygon","coordinates":[[[571.61,179.12],[572.01,193.78],[619.64,192.69],[628.24,177.17],[571.61,179.12]]]}},{"type":"Feature","properties":{"store_id":"rogers","unit":"5","name":"Rogers","category":"services","vacant":false,"centroid":[275.2,741.35]},"geometry":{"type":"Polygon","coordinates":[[[300.28,772.4],[300.18,692.09],[236.82,694.67],[238.47,775.17],[300.28,772.4]]]}},{"type":"Feature","properties":{"store_id":"samphhealth","unit":"34","name":"S&H Health","category":"services","vacant":false,"centroid":[540.93,336.91]},"geometry":{"type":"Polygon","coordinates":[[[549.9,323.88],[527.03,325.85],[527.55,355.68],[550.28,355.25],[549.9,323.88]]]}},{"type":"Feature","properties":{"store_id":"samrsquosshoesrepair","unit":"28","name":"Sam\u2019s Shoes Repair","category":"other","vacant":false,"centroid":[543.82,232.72]},"geometry":{"type":"Polygon","coordinates":[[[553.4,232.65],[528.78,220.21],[529.96,239.72],[553.53,238.34],[553.4,232.65]]]}},{"type":"Feature","properties":{"store_id":"shoppersdrugmart","unit":"6","name":"Shoppers Drug Mart","category":"anchor","vacant":false,"centroid":[567.49,735.48]},"geometry":{"type":"Polygon","coordinates":[[[654.06,757.16],[652.62,670.92],[540.93,676.39],[542.06,742.93],[526.81,743.68],[526.97,752.76],[504.85,753.82],[505.04,764.46],[654.06,757.16]]]}},{"type":"Feature","properties":{"store_id":"softrontax","unit":"20","name":"Softron Tax","category":"services","vacant":false,"centroid":[615.6,170.69]},"geometry":{"type":"Polygon","coordinates":[[[603.81,178.06],[628.24,177.17],[638.27,159.69],[603.84,160.47],[603.81,178.06]]]}},{"type":"Feature","properties":{"store_id":"southcommonmedicalcentre","unit":"15","name":"South Common Medical Centre","category":"services","vacant":false,"centroid":[158.71,101.65]},"geometry":{"type":"Polygon","coordinates":[[[168.13,128.79],[166.33,60.45],[144.82,60.98],[146.16,129.24],[168.13,128.79]]]}},{"type":"Feature","properties":{"store_id":"rapizza","unit":"53","name":"RAPiZZA","category":"restaurants","vacant":false,"centroid":[669.75,211.61]},"geometry":{"type":"Polygon","coordinates":[[[662.52,204.56],[672.58,225.46],[667.57,229.83],[676.3,239.08],[676.24,188.68],[670.52,189.07],[662.52,204.56]]]}},{"type":"Feature","properties":{"store_id":"stanzigelsteinlawyers","unit":"17","name":"Stan Zigelstein Lawyers","category":"services","vacant":false,"centroid":[649.97,114.9]},"geometry":{"type":"Polygon","coordinates":[[[672.02,118.61],[651.11,119.65],[650.73,96.98],[617.67,99.75],[617.29,126.33],[668.91,124.35],[672.02,118.61]]]}},{"type":"Feature","properties":{"store_id":"unit-22","unit":"22","name":"","category":"available","vacant":true,"centroid":[606.4,197.34]},"geometry":{"type":"Polygon","coordinates":[[[619.64,192.69],[589.69,193.38],[589.62,204.0],[613.42,203.92],[619.64,192.69]]]}},{"type":"Feature","properties":{"store_id":"subway","unit":"8","name":"Subway","category":"restaurants","vacant":false,"centroid":[778.67,712.89]},"geometry":{"type":"Polygon","coordinates":[[[803.09,719.4],[802.71,700.56],[742.13,704.13],[742.32,720.96],[803.09,719.4]]]}},{"type":"Feature","properties":{"store_id":"crazy-rolls-ice-cream","unit":"42","name":"Crazy Rolls Ice Cream","category":"food","vacant":false,"centroid":[612.69,410.47]},"geometry":{"type":"Polygon","coordinates":[[[622.26,419.31],[621.85,395.9],[598.11,397.71],[598.96,420.16],[622.26,419.31]]]}},{"type":"Feature","properties":{"store_id":"td","unit":"12","name":"TD Bank","category":"services","vacant":false,"centroid":[1145.35,169.26]},"geometry":{"type":"Polygon","coordinates":[[[1161.78,194.71],[1163.46,130.6],[1120.69,131.09],[1119.03,195.2],[1161.78,194.71]]]}},{"type":"Feature","properties":{"store_id":"theupperhandgamesandsportscards","unit":"44","name":"The Upper Hand Games","category":"general","vacant":false,"centroid":[633.56,394.84]},"geometry":{"type":"Polygon","coordinates":[[[641.27,378.77],[621.55,378.73],[622.26,419.31],[641.44,418.61],[641.27,378.77]]]}},{"type":"Feature","properties":{"store_id":"south-common-library","unit":"31","name":"South Common Library","category":"services","vacant":false,"centroid":[537.47,273.21]},"geometry":{"type":"Polygon","coordinates":[[[556.46,264.73],[503.07,269.4],[503.39,286.66],[567.97,280.55],[556.46,264.73]]]}},{"type":"Feature","properties":{"store_id":"thewineshop","unit":"39","name":"The Wine Shop","category":"general","vacant":false,"centroid":[507.66,398.39]},"geometry":{"type":"Polygon","coordinates":[[[517.89,381.47],[491.83,381.87],[492.99,424.02],[517.69,423.11],[517.89,381.47]]]}},{"type":"Feature","properties":{"store_id":"honey-nails-spa","unit":"26","name":"Honey  Nails & Spa","category":"services","vacant":false,"centroid":[524.37,194.3]},"geometry":{"type":"Polygon","coordinates":[[[539.11,207.34],[539.2,183.5],[501.97,184.74],[502.43,188.6],[539.11,207.34]]]}},{"type":"Feature","properties":{"store_id":"topstitch","unit":"36","name":"Top Stitch","category":"services","vacant":false,"centroid":[511.37,338.69]},"geometry":{"type":"Polygon","coordinates":[[[515.85,326.81],[504.16,327.8],[504.68,356.11],[516.3,355.89],[515.85,326.81]]]}},{"type":"Feature","properties":{"store_id":"viewcleaners","unit":"46","name":"Viewcleaners","category":"services","vacant":false,"centroid":[669.91,394.35]},"geometry":{"type":"Polygon","coordinates":[[[675.77,378.85],[660.87,378.81],[661.05,417.9],[676.11,417.35],[675.77,378.85]]]}},{"type":"Feature","properties":{"store_id":"walmartsupercentre","unit":"1","name":"Walmart Supercentre","category":"anchor","vacant":false,"centroid":[897.93,264.71]},"geometry":{"type":"Polygon","coordinates":[[[709.24,89.29],[720.29,416.79],[911.89,408.77],[911.71,372.88],[959.66,370.84],[959.88,407.09],[1089.95,401.94],[1089.28,271.82],[1054.36,273.14],[1053.59,120.91],[752.18,130.02],[751.77,88.48],[709.24,89.29]]]}},{"type":"Feature","properties":{"store_id":"wcgservices","unit":"48","name":"WCG Services","category":"services","vacant":false,"centroid":[624.13,341.07]},"geometry":{"type":"Polygon","coordinates":[[[645.41,353.41],[645.96,318.77],[599.68,320.47],[599.53,346.11],[608.78,354.24],[645.41,353.41]]]}},{"type":"Feature","properties":{"store_id":"a1donuts","unit":"51","name":"A-1 Donuts","category":"food","vacant":false,"centroid":[653.01,228.69]},"geometry":{"type":"Polygon","coordinates":[[[664.45,231.88],[651.27,217.82],[642.61,218.53],[631.64,235.66],[663.62,236.4],[664.45,231.88]]]}}]}