{"type":"FeatureCollection","features":[{"type":"Feature","properties":{"store_id":"famousoptic","unit":"54","name":"Famous Optic","category":"services","vacant":false,"centroid":[432.49,750.86]},"geometry":{"type":"Polygon","coordinates":[[[414.23,763.39],[423.36,771.61],[460.5,733.01],[450.11,722.89],[414.23,763.39]]]}},{"type":"Feature","properties":{"store_id":"asiangourmet","unit":"50","name":"Asian Gourmet","category":"restaurants","vacant":false,"centroid":[483.88,753.04]},"geometry":{"type":"Polygon","coordinates":[[[471.09,748.47],[488.54,767.35],[506.27,762.6],[482.4,738.31],[471.09,748.47]]]}},{"type":"Feature","properties":{"store_id":"unit-19","unit":"19","name":"","category":"available","vacant":true,"centroid":[426.24,830.48]},"geometry":{"type":"Polygon","coordinates":[[[419.68,813.42],[399.64,820.4],[439.57,859.44],[452.61,845.74],[419.68,813.42]]]}},{"type":"Feature","properties":{"store_id":"unit-55","unit":"55","name":"","category":"available","vacant":true,"centroid":[442.65,723.32]},"geometry":{"type":"Polygon","coordinates":[[[461.07,710.01],[461.42,703.45],[454.65,697.92],[404.01,754.95],[413.66,763.57],[461.07,710.01]]]}},{"type":"Feature","properties":{"store_id":"sunshine-healthcare","unit":"38","name":"Sunshine Healthcare","category":"services","vacant":false,"centroid":[653.75,813.84]},"geometry":{"type":"Polygon","coordinates":[[[630.18,831.43],[640.2,840.02],[689.76,788.76],[678.42,777.54],[630.18,831.43]]]}},{"type":"Feature","properties":{"store_id":"unit-27","unit":"27","name":"","category":"available","vacant":true,"centroid":[567.28,863.21]},"geometry":{"type":"Polygon","coordinates":[[[564.8,834.58],[548.97,853.29],[561.54,896.16],[565.31,899.55],[598.25,861.11],[564.8,834.58]]]}},{"type":"Feature","properties":{"store_id":"lola-norma-s-karinderya","unit":"52","name":"Lola Norma's Karinderya","category":"restaurants","vacant":false,"centroid":[451.61,758.92]},"geometry":{"type":"Polygon","coordinates":[[[444.1,769.31],[458.22,764.08],[459.17,746.05],[452.46,745.84],[444.1,769.31]]]}},{"type":"Feature","properties":{"store_id":"barburrito","unit":"3","name":"BarBurrito","category":"restaurants","vacant":false,"centroid":[1141.16,694.74]},"geometry":{"type":"Polygon","coordinates":[[[1158.76,687.06],[1145.87,673.86],[1114.44,706.46],[1127.99,719.25],[1158.76,687.06]]]}},{"type":"Feature","properties":{"store_id":"bmo","unit":"11","name":"BMO","category":"services","vacant":false,"centroid":[498.04,70.52]},"geometry":{"type":"Polygon","coordinates":[[[492.07,109.1],[545.19,53.74],[531.03,40.0],[476.98,41.99],[450.88,69.2],[492.07,109.1]]]}},{"type":"Feature","properties":{"store_id":"dentist","unit":"13","name":"Dentist","category":"services","vacant":false,"centroid":[679.84,1192.51]},"geometry":{"type":"Polygon","coordinates":[[[654.07,1208.34],[669.19,1223.1],[717.85,1168.19],[704.02,1154.57],[654.07,1208.34]]]}},{"type":"Feature","properties":{"store_id":"dollarama","unit":"47","name":"Dollarama","category":"anchor","vacant":false,"centroid":[524.77,706.91]},"geometry":{"type":"Polygon","coordinates":[[[565.58,665.99],[525.51,626.71],[463.83,695.71],[475.77,708.08],[464.37,719.98],[506.27,762.6],[547.22,751.63],[549.97,748.76],[535.09,734.74],[558.35,710.25],[539.7,692.5],[565.58,665.99]]]}},{"type":"Feature","properties":{"store_id":"cell-max","unit":"49","name":"Cell Max","category":"services","vacant":false,"centroid":[553.36,733.36]},"geometry":{"type":"Polygon","coordinates":[[[550.05,748.68],[573.26,724.44],[558.35,710.25],[535.09,734.74],[550.05,748.68]]]}},{"type":"Feature","properties":{"store_id":"unit-33","unit":"33","name":"","category":"available","vacant":true,"centroid":[610.36,736.78]},"geometry":{"type":"Polygon","coordinates":[[[592.52,742.14],[610.52,757.58],[633.34,732.94],[623.12,722.83],[610.13,723.05],[592.52,742.14]]]}},{"type":"Feature","properties":{"store_id":"firstchoicehaircutters","unit":"9","name":"First Choice Haircutters","category":"services","vacant":false,"centroid":[750.28,276.6]},"geometry":{"type":"Polygon","coordinates":[[[737.9,254.03],[724.84,268.34],[768.4,310.82],[782.37,295.76],[737.9,254.03]]]}},{"type":"Feature","properties":{"store_id":"thairoomgrand","unit":"4","name":"Thairoomgrand","category":"restaurants","vacant":false,"centroid":[1123.79,681.37]},"geometry":{"type":"Polygon","coordinates":[[[1101.91,694.63],[1114.44,706.46],[1156.88,662.45],[1143.81,648.68],[1101.91,694.63]]]}},{"type":"Feature","properties":{"store_id":"fikacannabis","unit":"10","name":"FIKA Cannabis","category":"general","vacant":false,"centroid":[762.59,263.2]},"geometry":{"type":"Polygon","coordinates":[[[749.63,241.19],[737.9,254.03],[782.37,295.76],[793.43,283.85],[749.63,241.19]]]}},{"type":"Feature","properties":{"store_id":"unit-18","unit":"18","name":"","category":"available","vacant":true,"centroid":[409.32,844.56]},"geometry":{"type":"Polygon","coordinates":[[[418.11,862.59],[430.15,850.19],[399.64,820.4],[380.61,827.02],[418.11,862.59]]]}},{"type":"Feature","properties":{"store_id":"stackedpancakeampbreakfasthouse","unit":"7","name":"Stacked Pancake & Breakfast House","category":"restaurants","vacant":false,"centroid":[723.36,306.02]},"geometry":{"type":"Polygon","coordinates":[[[711.24,283.25],[697.05,299.21],[741.13,340.36],[756.15,324.03],[711.24,283.25]]]}},{"type":"Feature","properties":{"store_id":"fit4less","unit":"16","name":"Fit4Less","category":"anchor","vacant":false,"centroid":[490.98,924.88]},"geometry":{"type":"Polygon","coordinates":[[[590.7,952.13],[465.58,832.1],[408.48,892.13],[429.85,911.33],[424.7,916.96],[526.82,1017.35],[590.7,952.13]]]}},{"type":"Feature","properties":{"store_id":"mad-digital-exchange","unit":"24","name":"MAD Digital Exchange","category":"services","vacant":false,"centroid":[509.68,827.47]},"geometry":{"type":"Polygon","coordinates":[[[496.18,833.97],[505.53,842.64],[523.01,823.66],[521.36,817.94],[515.8,812.61],[496.18,833.97]]]}},{"type":"Feature","properties":{"store_id":"infolottokiosk","unit":"56","name":"Info/Lotto | Kiosk","category":"services","vacant":false,"centroid":[598.87,716.56]},"geometry":{"type":"Polygon","coordinates":[[[598.65,713.62],[595.18,717.26],[599.28,720.9],[602.58,717.42],[598.65,713.62]]]}},{"type":"Feature","properties":{"store_id":"sunrise-orthotics","unit":"23","name":"Sunrise Orthotics","category":"services","vacant":false,"centroid":[499.11,814.56]},"geometry":{"type":"Polygon","coordinates":[[[500.87,828.75],[515.8,812.61],[500.13,797.6],[477.9,805.1],[500.87,828.75]]]}},{"type":"Feature","properties":{"store_id":"kumon","unit":"37","name":"Kumon Math & Reading Centre","category":"services","vacant":false,"centroid":[645.21,805.94]},"geometry":{"type":"Polygon","coordinates":[[[630.18,831.43],[678.42,777.54],[668.32,767.54],[618.93,821.78],[630.18,831.43]]]}},{"type":"Feature","properties":{"store_id":"lacoupla","unit":"45","name":"La Coupla","category":"services","vacant":false,"centroid":[590.51,628.48]},"geometry":{"type":"Polygon","coordinates":[[[573.48,635.14],[587.13,649.26],[616.33,618.19],[602.12,604.65],[573.48,635.14]]]}},{"type":"Feature","properties":{"store_id":"lynearhairsalon","unit":"25","name":"Lynear Hair Salon","category":"services","vacant":false,"centroid":[515.84,856.55]},"geometry":{"type":"Polygon","coordinates":[[[514.69,874.32],[532.29,855.86],[523.01,823.66],[494.51,854.61],[514.69,874.32]]]}},{"type":"Feature","properties":{"store_id":"south-common-orthopedic","unit":"35","name":"South Common Orthopedic","category":"services","vacant":false,"centroid":[639.87,766.12]},"geometry":{"type":"Polygon","coordinates":[[[627.93,772.5],[636.44,779.79],[657.53,756.87],[649.52,748.95],[627.93,772.5]]]}},{"type":"Feature","properties":{"store_id":"nailsforyou","unit":"43","name":"Nails For You","category":"services","vacant":false,"centroid":[615.57,662.78]},"geometry":{"type":"Polygon","coordinates":[[[613.29,649.92],[600.86,663.47],[610.95,673.91],[623.86,673.91],[631.2,665.58],[613.29,649.92]]]}},{"type":"Feature","properties":{"store_id":"nofrills","unit":"2","name":"No Frills","category":"anchor","vacant":false,"centroid":[720.44,873.88]},"geometry":{"type":"Polygon","coordinates":[[[734.19,968.87],[704.33,1002.71],[754.07,1049.84],[897.02,897.35],[772.11,779.01],[753.68,797.79],[719.19,765.6],[693.88,792.84],[689.76,788.76],[640.2,840.02],[645.34,844.5],[627.71,864.27],[734.19,968.87]]]}},{"type":"Feature","properties":{"store_id":"onenesswellnesscentre","unit":"14","name":"Oneness Wellness Centre","category":"services","vacant":false,"centroid":[694.82,1207.18]},"geometry":{"type":"Polygon","coordinates":[[[669.19,1223.1],[684.41,1237.95],[733.45,1183.57],[717.85,1168.19],[669.19,1223.1]]]}},{"type":"Feature","properties":{"store_id":"pamirrugsco","unit":"30","name":"Pamir Rugs Co.","category":"general","vacant":false,"centroid":[572.67,815.18]},"geometry":{"type":"Polygon","coordinates":[[[562.41,798.82],[561.65,803.1],[553.88,811.66],[592.54,845.13],[603.12,833.57],[562.41,798.82]]]}},{"type":"Feature","properties":{"store_id":"peplosbydesigner","unit":"29","name":"Peplos by Designer","category":"general","vacant":false,"centroid":[566.82,834.16]},"geometry":{"type":"Polygon","coordinates":[[[562.51,837.29],[564.8,834.58],[586.47,851.77],[592.54,845.13],[553.88,811.66],[545.03,821.42],[562.51,837.29]]]}},{"type":"Feature","properties":{"store_id":"pitaland","unit":"41","name":"Pita Land","category":"restaurants","vacant":false,"centroid":[655.75,694.3]},"geometry":{"type":"Polygon","coordinates":[[[641.48,702.23],[656.67,717.36],[686.96,685.49],[666.08,665.6],[641.8,692.9],[641.48,702.23]]]}},{"type":"Feature","properties":{"store_id":"popeyes","unit":"40","name":"Popeyes Louisiana Chicken","category":"restaurants","vacant":false,"centroid":[676.31,711.95]},"geometry":{"type":"Polygon","coordinates":[[[656.67,717.36],[675.24,735.86],[706.02,703.66],[686.96,685.49],[656.67,717.36]]]}},{"type":"Feature","properties":{"store_id":"unit-32","unit":"32","name":"","category":"available","vacant":true,"centroid":[596.6,773.16]},"geometry":{"type":"Polygon","coordinates":[[[592.52,742.14],[567.63,769.09],[566.02,778.25],[615.59,819.93],[645.33,787.42],[592.52,742.14]]]}},{"type":"Feature","properties":{"store_id":"realfruitbubbletea","unit":"21","name":"Real Fruit Bubble Tea","category":"food","vacant":false,"centroid":[478.04,835.23]},"geometry":{"type":"Polygon","coordinates":[[[488.84,854.42],[499.35,842.75],[465.3,809.35],[447.87,815.23],[488.84,854.42]]]}},{"type":"Feature","properties":{"store_id":"rogers","unit":"5","name":"Rogers","category":"services","vacant":false,"centroid":[1109.47,630.78]},"geometry":{"type":"Polygon","coordinates":[[[1114.82,588.63],[1055.79,651.09],[1101.91,694.63],[1160.0,630.91],[1114.82,588.63]]]}},{"type":"Feature","properties":{"store_id":"samphhealth","unit":"34","name":"S&H Health","category":"services","vacant":false,"centroid":[626.37,753.91]},"geometry":{"type":"Polygon","coordinates":[[[610.52,757.58],[627.93,772.5],[649.52,748.95],[633.34,732.94],[610.52,757.58]]]}},{"type":"Feature","properties":{"store_id":"samrsquosshoesrepair","unit":"28","name":"Sam\u2019s Shoes Repair","category":"other","vacant":false,"centroid":[547.68,832.77]},"geometry":{"type":"Polygon","coordinates":[[[540.94,825.93],[548.97,853.29],[562.51,837.29],[545.03,821.42],[540.94,825.93]]]}},{"type":"Feature","properties":{"store_id":"shoppersdrugmart","unit":"6","name":"Shoppers Drug Mart","category":"anchor","vacant":false,"centroid":[901.13,425.22]},"geometry":{"type":"Polygon","coordinates":[[[856.65,346.15],[794.2,414.17],[876.18,490.21],[924.36,437.71],[935.56,448.09],[942.13,440.93],[958.35,456.0],[966.05,447.6],[856.65,346.15]]]}},{"type":"Feature","properties":{"store_id":"softrontax","unit":"20","name":"Softron Tax","category":"services","vacant":false,"centroid":[451.93,829.35]},"geometry":{"type":"Polygon","coordinates":[[[465.58,832.1],[447.87,815.23],[428.01,821.59],[452.61,845.74],[465.58,832.1]]]}},{"type":"Feature","properties":{"store_id":"southcommonmedicalcentre","unit":"15","name":"South Common Medical Centre","category":"services","vacant":false,"centroid":[720.05,1211.42]},"geometry":{"type":"Polygon","coordinates":[[[733.45,1183.57],[684.41,1237.95],[699.82,1253.0],[749.11,1199.01],[733.45,1183.57]]]}},{"type":"Feature","properties":{"store_id":"rapizza","unit":"53","name":"RAPiZZA","category":"restaurants","vacant":false,"centroid":[444.24,758.64]},"geometry":{"type":"Polygon","coordinates":[[[444.1,769.31],[452.46,745.84],[459.17,746.05],[459.88,732.59],[422.84,771.78],[427.11,775.59],[444.1,769.31]]]}},{"type":"Feature","properties":{"store_id":"stanzigelsteinlawyers","unit":"17","name":"Stan Zigelstein Lawyers","category":"services","vacant":false,"centroid":[386.88,847.98]},"geometry":{"type":"Polygon","coordinates":[[[374.22,829.24],[389.58,843.47],[373.16,861.35],[398.28,882.96],[418.11,862.59],[380.61,827.02],[374.22,829.24]]]}},{"type":"Feature","properties":{"store_id":"unit-22","unit":"22","name":"","category":"available","vacant":true,"centroid":[477.96,815.26]},"geometry":{"type":"Polygon","coordinates":[[[465.3,809.35],[486.71,830.35],[494.58,822.15],[477.9,805.1],[465.3,809.35]]]}},{"type":"Feature","properties":{"store_id":"subway","unit":"8","name":"Subway","category":"restaurants","vacant":false,"centroid":[737.09,290.96]},"geometry":{"type":"Polygon","coordinates":[[[724.84,268.34],[711.24,283.25],[756.15,324.03],[768.4,310.82],[724.84,268.34]]]}},{"type":"Feature","properties":{"store_id":"crazy-rolls-ice-cream","unit":"42","name":"Crazy Rolls Ice Cream","category":"food","vacant":false,"centroid":[630.41,645.18]},"geometry":{"type":"Polygon","coordinates":[[[630.23,631.44],[613.29,649.92],[631.2,665.58],[647.12,647.53],[630.23,631.44]]]}},{"type":"Feature","properties":{"store_id":"td","unit":"12","name":"TD Bank","category":"services","vacant":false,"centroid":[81.09,449.63]},"geometry":{"type":"Polygon","coordinates":[[[88.35,418.05],[40.0,466.64],[70.21,497.01],[118.55,448.41],[88.35,418.05]]]}},{"type":"Feature","properties":{"store_id":"theupperhandgamesandsportscards","unit":"44","name":"The Upper Hand Games","category":"general","vacant":false,"centroid":[604.34,642.32]},"geometry":{"type":"Polygon","coordinates":[[[587.13,649.26],[600.86,663.47],[630.23,631.44],[616.33,618.19],[587.13,649.26]]]}},{"type":"Feature","properties":{"store_id":"south-common-library","unit":"31","name":"South Common Library","category":"services","vacant":false,"centroid":[581.91,805.88]},"geometry":{"type":"Polygon","coordinates":[[[562.41,798.82],[603.12,833.57],[615.59,819.93],[566.02,778.25],[562.41,798.82]]]}},{"type":"Feature","properties":{"store_id":"thewineshop","unit":"39","name":"The Wine Shop","category":"general","vacant":false,"centroid":[694.83,730.07]},"geometry":{"type":"Polygon","coordinates":[[[675.24,735.86],[693.73,754.28],[723.93,720.71],[706.02,703.66],[675.24,735.86]]]}},{"type":"Feature","properties":{"store_id":"honey-nails-spa","unit":"26","name":"Honey  Nails & Spa","category":"services","vacant":false,"centroid":[532.99,876.59]},"geometry":{"type":"Polygon","coordinates":[[[532.29,855.86],[514.69,874.32],[541.58,900.12],[544.1,896.79],[532.29,855.86]]]}},{"type":"Feature","properties":{"store_id":"topstitch","unit":"36","name":"Top Stitch","category":"services","vacant":false,"centroid":[648.31,773.78]},"geometry":{"type":"Polygon","coordinates":[[[636.44,779.79],[645.33,787.42],[665.8,765.05],[657.53,756.87],[636.44,779.79]]]}},{"type":"Feature","properties":{"store_id":"viewcleaners","unit":"46","name":"Viewcleaners","category":"services","vacant":false,"centroid":[578.6,616.57]},"geometry":{"type":"Polygon","coordinates":[[[563.11,624.4],[573.48,635.14],[602.12,604.65],[591.2,594.25],[563.11,624.4]]]}},{"type":"Feature","properties":{"store_id":"walmartsupercentre","unit":"1","name":"Walmart Supercentre","category":"anchor","vacant":false,"centroid":[324.04,553.35]},"geometry":{"type":"Polygon","coordinates":[[[326.66,825.26],[559.95,562.92],[420.3,431.42],[394.02,459.42],[359.05,426.54],[385.57,398.22],[290.99,308.72],[195.7,410.27],[221.05,434.35],[109.56,553.15],[326.66,762.76],[296.38,795.31],[326.66,825.26]]]}},{"type":"Feature","properties":{"store_id":"wcgservices","unit":"48","name":"WCG Services","category":"services","vacant":false,"centroid":[571.35,690.87]},"geometry":{"type":"Polygon","coordinates":[[[565.58,665.99],[539.7,692.5],[573.26,724.44],[592.23,704.64],[591.76,691.67],[565.58,665.99]]]}},{"type":"Feature","properties":{"store_id":"a1donuts","unit":"51","name":"A-1 Donuts","category":"food","vacant":false,"centroid":[468.5,757.4]},"geometry":{"type":"Polygon","coordinates":[[[462.86,746.7],[461.71,767.1],[468.28,772.77],[488.54,767.35],[466.76,743.79],[462.86,746.7]]]}}]}